CCSDS_OMM_VERS = 2.0
CREATION_DATE  = 
ORIGINATOR     = 

OBJECT_NAME    = STARLINK-36381
OBJECT_ID      = 2026-037W
CENTER_NAME    = EARTH
REF_FRAME      = TEME
TIME_SYSTEM    = UTC
MEAN_ELEMENT_THEORY = SGP/SGP4

EPOCH          = 2026-03-05T06:00:02.999808
MEAN_MOTION    = 15.95598456
ECCENTRICITY   = .00016544
INCLINATION    = 43.0004
RA_OF_ASC_NODE = 225.8281
ARG_OF_PERICENTER = 273.7375
MEAN_ANOMALY   = 223.9827

EPHEMERIS_TYPE = 0
CLASSIFICATION_TYPE = U
NORAD_CAT_ID   = 67952
ELEMENT_SET_NO = 999
REV_AT_EPOCH   = 248
BSTAR          = -.36642559E-2
MEAN_MOTION_DOT = -.1521042E-1
MEAN_MOTION_DDOT = .67462354E-3

CCSDS_OMM_VERS = 2.0
CREATION_DATE  = 
ORIGINATOR     = 

OBJECT_NAME    = STARLINK-36824
OBJECT_ID      = 2026-037X
CENTER_NAME    = EARTH
REF_FRAME      = TEME
TIME_SYSTEM    = UTC
MEAN_ELEMENT_THEORY = SGP/SGP4

EPOCH          = 2026-03-05T06:00:02.999808
MEAN_MOTION    = 15.95474321
ECCENTRICITY   = .0001582
INCLINATION    = 43.0005
RA_OF_ASC_NODE = 225.8338
ARG_OF_PERICENTER = 277.4566
MEAN_ANOMALY   = 218.0238

EPHEMERIS_TYPE = 0
CLASSIFICATION_TYPE = U
NORAD_CAT_ID   = 67953
ELEMENT_SET_NO = 999
REV_AT_EPOCH   = 248
BSTAR          = -.36997689E-2
MEAN_MOTION_DOT = -.1525399E-1
MEAN_MOTION_DDOT = .67732638E-3

CCSDS_OMM_VERS = 2.0
CREATION_DATE  = 
ORIGINATOR     = 

OBJECT_NAME    = STARLINK-36869
OBJECT_ID      = 2026-037Y
CENTER_NAME    = EARTH
REF_FRAME      = TEME
TIME_SYSTEM    = UTC
MEAN_ELEMENT_THEORY = SGP/SGP4

EPOCH          = 2026-03-05T06:00:02.999808
MEAN_MOTION    = 15.95718517
ECCENTRICITY   = .00015903
INCLINATION    = 43.0003
RA_OF_ASC_NODE = 225.8230
ARG_OF_PERICENTER = 275.2936
MEAN_ANOMALY   = 224.3268

EPHEMERIS_TYPE = 0
CLASSIFICATION_TYPE = U
NORAD_CAT_ID   = 67954
ELEMENT_SET_NO = 999
REV_AT_EPOCH   = 248
BSTAR          = -.36226598E-2
MEAN_MOTION_DOT = -.1513695E-1
MEAN_MOTION_DDOT = .66946126E-3

CCSDS_OMM_VERS = 2.0
CREATION_DATE  = 
ORIGINATOR     = 

OBJECT_NAME    = STARLINK-36872
OBJECT_ID      = 2026-037Z
CENTER_NAME    = EARTH
REF_FRAME      = TEME
TIME_SYSTEM    = UTC
MEAN_ELEMENT_THEORY = SGP/SGP4

EPOCH          = 2026-03-05T06:00:02.999808
MEAN_MOTION    = 15.95967788
ECCENTRICITY   = .00014703
INCLINATION    = 43.0003
RA_OF_ASC_NODE = 225.8099
ARG_OF_PERICENTER = 274.1854
MEAN_ANOMALY   = 230.5022

EPHEMERIS_TYPE = 0
CLASSIFICATION_TYPE = U
NORAD_CAT_ID   = 67955
ELEMENT_SET_NO = 999
REV_AT_EPOCH   = 248
BSTAR          = -.35856229E-2
MEAN_MOTION_DOT = -.1518608E-1
MEAN_MOTION_DDOT = .67517441E-3

CCSDS_OMM_VERS = 2.0
CREATION_DATE  = 
ORIGINATOR     = 

OBJECT_NAME    = STARLINK-36918
OBJECT_ID      = 2026-037AA
CENTER_NAME    = EARTH
REF_FRAME      = TEME
TIME_SYSTEM    = UTC
MEAN_ELEMENT_THEORY = SGP/SGP4

EPOCH          = 2026-03-05T06:00:02.999808
MEAN_MOTION    = 15.96093073
ECCENTRICITY   = .00015958
INCLINATION    = 43.0004
RA_OF_ASC_NODE = 225.8033
ARG_OF_PERICENTER = 273.3563
MEAN_ANOMALY   = 234.0057

EPHEMERIS_TYPE = 0
CLASSIFICATION_TYPE = U
NORAD_CAT_ID   = 67956
ELEMENT_SET_NO = 999
REV_AT_EPOCH   = 248
BSTAR          = -.35692694E-2
MEAN_MOTION_DOT = -.1522044E-1
MEAN_MOTION_DDOT = .6788545E-3

CCSDS_OMM_VERS = 2.0
CREATION_DATE  = 
ORIGINATOR     = 

OBJECT_NAME    = STARLINK-36829
OBJECT_ID      = 2026-037AB
CENTER_NAME    = EARTH
REF_FRAME      = TEME
TIME_SYSTEM    = UTC
MEAN_ELEMENT_THEORY = SGP/SGP4

EPOCH          = 2026-03-05T06:00:02.999808
MEAN_MOTION    = 15.95843258
ECCENTRICITY   = .00016675
INCLINATION    = 43.0002
RA_OF_ASC_NODE = 225.8173
ARG_OF_PERICENTER = 276.7633
MEAN_ANOMALY   = 225.2053

EPHEMERIS_TYPE = 0
CLASSIFICATION_TYPE = U
NORAD_CAT_ID   = 67957
ELEMENT_SET_NO = 999
REV_AT_EPOCH   = 248
BSTAR          = -.3611201E-2
MEAN_MOTION_DOT = -.1519138E-1
MEAN_MOTION_DDOT = .67474906E-3

CCSDS_OMM_VERS = 2.0
CREATION_DATE  = 
ORIGINATOR     = 

OBJECT_NAME    = STARLINK-36799
OBJECT_ID      = 2026-037AC
CENTER_NAME    = EARTH
REF_FRAME      = TEME
TIME_SYSTEM    = UTC
MEAN_ELEMENT_THEORY = SGP/SGP4

EPOCH          = 2026-03-05T06:00:02.999808
MEAN_MOTION    = 15.96212849
ECCENTRICITY   = .00016291
INCLINATION    = 43.0000
RA_OF_ASC_NODE = 225.7978
ARG_OF_PERICENTER = 275.3988
MEAN_ANOMALY   = 234.3054

EPHEMERIS_TYPE = 0
CLASSIFICATION_TYPE = U
NORAD_CAT_ID   = 67958
ELEMENT_SET_NO = 999
REV_AT_EPOCH   = 248
BSTAR          = -.35312861E-2
MEAN_MOTION_DOT = -.1515828E-1
MEAN_MOTION_DDOT = .67459107E-3

CCSDS_OMM_VERS = 2.0
CREATION_DATE  = 
ORIGINATOR     = 

OBJECT_NAME    = STARLINK-36834
OBJECT_ID      = 2026-037AD
CENTER_NAME    = EARTH
REF_FRAME      = TEME
TIME_SYSTEM    = UTC
MEAN_ELEMENT_THEORY = SGP/SGP4

EPOCH          = 2026-03-05T06:00:02.999808
MEAN_MOTION    = 15.96462796
ECCENTRICITY   = .00013743
INCLINATION    = 43.0002
RA_OF_ASC_NODE = 225.7841
ARG_OF_PERICENTER = 272.9119
MEAN_ANOMALY   = 242.1029

EPHEMERIS_TYPE = 0
CLASSIFICATION_TYPE = U
NORAD_CAT_ID   = 67959
ELEMENT_SET_NO = 999
REV_AT_EPOCH   = 248
BSTAR          = -.34930101E-2
MEAN_MOTION_DOT = -.1519961E-1
MEAN_MOTION_DDOT = .67971857E-3

CCSDS_OMM_VERS = 2.0
CREATION_DATE  = 
ORIGINATOR     = 

OBJECT_NAME    = STARLINK-36841
OBJECT_ID      = 2026-037AE
CENTER_NAME    = EARTH
REF_FRAME      = TEME
TIME_SYSTEM    = UTC
MEAN_ELEMENT_THEORY = SGP/SGP4

EPOCH          = 2026-03-05T06:00:02.999808
MEAN_MOTION    = 15.96339483
ECCENTRICITY   = .00015726
INCLINATION    = 43.0000
RA_OF_ASC_NODE = 225.7911
ARG_OF_PERICENTER = 268.9230
MEAN_ANOMALY   = 243.2937

EPHEMERIS_TYPE = 0
CLASSIFICATION_TYPE = U
NORAD_CAT_ID   = 67960
ELEMENT_SET_NO = 999
REV_AT_EPOCH   = 248
BSTAR          = -.3521243E-2
MEAN_MOTION_DOT = -.1521942E-1
MEAN_MOTION_DDOT = .68048722E-3

CCSDS_OMM_VERS = 2.0
CREATION_DATE  = 
ORIGINATOR     = 

OBJECT_NAME    = STARLINK-36912
OBJECT_ID      = 2026-038A
CENTER_NAME    = EARTH
REF_FRAME      = TEME
TIME_SYSTEM    = UTC
MEAN_ELEMENT_THEORY = SGP/SGP4

EPOCH          = 2026-03-05T06:00:02.999808
MEAN_MOTION    = 16.01401041
ECCENTRICITY   = .00011802
INCLINATION    = 97.2767
RA_OF_ASC_NODE = 74.1735
ARG_OF_PERICENTER = 71.5802
MEAN_ANOMALY   = 51.4237

EPHEMERIS_TYPE = 0
CLASSIFICATION_TYPE = U
NORAD_CAT_ID   = 67961
ELEMENT_SET_NO = 999
REV_AT_EPOCH   = 248
BSTAR          = -.27592307E-2
MEAN_MOTION_DOT = -.1503486E-1
MEAN_MOTION_DDOT = .70852477E-3

CCSDS_OMM_VERS = 2.0
CREATION_DATE  = 
ORIGINATOR     = 

OBJECT_NAME    = STARLINK-36881
OBJECT_ID      = 2026-038B
CENTER_NAME    = EARTH
REF_FRAME      = TEME
TIME_SYSTEM    = UTC
MEAN_ELEMENT_THEORY = SGP/SGP4

EPOCH          = 2026-03-05T06:00:02.999808
MEAN_MOTION    = 16.01463096
ECCENTRICITY   = .00010314
INCLINATION    = 97.2764
RA_OF_ASC_NODE = 74.1741
ARG_OF_PERICENTER = 80.8223
MEAN_ANOMALY   = 43.9157

EPHEMERIS_TYPE = 0
CLASSIFICATION_TYPE = U
NORAD_CAT_ID   = 67962
ELEMENT_SET_NO = 999
REV_AT_EPOCH   = 248
BSTAR          = -.26980301E-2
MEAN_MOTION_DOT = -.1475689E-1
MEAN_MOTION_DDOT = .68487331E-3

CCSDS_OMM_VERS = 2.0
CREATION_DATE  = 
ORIGINATOR     = 

OBJECT_NAME    = STARLINK-36357
OBJECT_ID      = 2026-038C
CENTER_NAME    = EARTH
REF_FRAME      = TEME
TIME_SYSTEM    = UTC
MEAN_ELEMENT_THEORY = SGP/SGP4

EPOCH          = 2026-03-05T06:00:02.999808
MEAN_MOTION    = 16.01712876
ECCENTRICITY   = .00011133
INCLINATION    = 97.2763
RA_OF_ASC_NODE = 74.1763
ARG_OF_PERICENTER = 79.9159
MEAN_ANOMALY   = 49.3510

EPHEMERIS_TYPE = 0
CLASSIFICATION_TYPE = U
NORAD_CAT_ID   = 67963
ELEMENT_SET_NO = 999
REV_AT_EPOCH   = 248
BSTAR          = -.26966352E-2
MEAN_MOTION_DOT = -.1496089E-1
MEAN_MOTION_DDOT = .70458731E-3

CCSDS_OMM_VERS = 2.0
CREATION_DATE  = 
ORIGINATOR     = 

OBJECT_NAME    = STARLINK-36349
OBJECT_ID      = 2026-038D
CENTER_NAME    = EARTH
REF_FRAME      = TEME
TIME_SYSTEM    = UTC
MEAN_ELEMENT_THEORY = SGP/SGP4

EPOCH          = 2026-03-05T06:00:02.999808
MEAN_MOTION    = 16.01604241
ECCENTRICITY   = .00011417
INCLINATION    = 97.2762
RA_OF_ASC_NODE = 74.1750
ARG_OF_PERICENTER = 87.3923
MEAN_ANOMALY   = 39.5994

EPHEMERIS_TYPE = 0
CLASSIFICATION_TYPE = U
NORAD_CAT_ID   = 67964
ELEMENT_SET_NO = 999
REV_AT_EPOCH   = 248
BSTAR          = -.27375157E-2
MEAN_MOTION_DOT = -.1509131E-1
MEAN_MOTION_DDOT = .71514508E-3

CCSDS_OMM_VERS = 2.0
CREATION_DATE  = 
ORIGINATOR     = 

OBJECT_NAME    = STARLINK-36806
OBJECT_ID      = 2026-038E
CENTER_NAME    = EARTH
REF_FRAME      = TEME
TIME_SYSTEM    = UTC
MEAN_ELEMENT_THEORY = SGP/SGP4

EPOCH          = 2026-03-05T06:00:02.999808
MEAN_MOTION    = 16.01845107
ECCENTRICITY   = .00012018
INCLINATION    = 97.2758
RA_OF_ASC_NODE = 74.1773
ARG_OF_PERICENTER = 71.1612
MEAN_ANOMALY   = 60.7284

EPHEMERIS_TYPE = 0
CLASSIFICATION_TYPE = U
NORAD_CAT_ID   = 67965
ELEMENT_SET_NO = 999
REV_AT_EPOCH   = 248
BSTAR          = -.26587847E-2
MEAN_MOTION_DOT = -.1486535E-1
MEAN_MOTION_DDOT = .69731747E-3

CCSDS_OMM_VERS = 2.0
CREATION_DATE  = 
ORIGINATOR     = 

OBJECT_NAME    = STARLINK-36820
OBJECT_ID      = 2026-038F
CENTER_NAME    = EARTH
REF_FRAME      = TEME
TIME_SYSTEM    = UTC
MEAN_ELEMENT_THEORY = SGP/SGP4

EPOCH          = 2026-03-05T06:00:02.999808
MEAN_MOTION    = 16.01958683
ECCENTRICITY   = .00011331
INCLINATION    = 97.2758
RA_OF_ASC_NODE = 74.1783
ARG_OF_PERICENTER = 85.4347
MEAN_ANOMALY   = 48.6605

EPHEMERIS_TYPE = 0
CLASSIFICATION_TYPE = U
NORAD_CAT_ID   = 67966
ELEMENT_SET_NO = 999
REV_AT_EPOCH   = 248
BSTAR          = -.26376302E-2
MEAN_MOTION_DOT = -.1484442E-1
MEAN_MOTION_DDOT = .69640686E-3

